STARLINK-5772           
1 56024U 23042AQ  26076.91670139  .00009697  00000+0  52491-3 0  9999
2 56024  43.0020 357.9046 0002218 258.6025 102.0582 15.14765129  5771
STARLINK-5766           
1 56025U 23042AR  26076.91670139  .00009152  00000+0  50374-3 0  9994
2 56025  43.0004 358.4119 0000443 331.8101 174.9189 15.14222575  5772
STARLINK-5770           
1 56026U 23042AS  26076.91670139  .00010754  00000+0  54894-3 0  9996
2 56026  43.0004 357.6277 0000702 321.5160 158.5859 15.16758593  5721
STARLINK-5777           
1 56027U 23042AT  26076.91670139  .00007785  00000+0  40534-3 0  9993
2 56027  42.9999 357.7994 0001735 263.1433 143.9128 15.16359924  5622
STARLINK-5779           
1 56028U 23042AU  26076.91670139  .00005219  00000+0  29958-3 0  9991
2 56028  42.9998 357.8325 0001396 234.6108 152.9773 15.13384185  5772
STARLINK-5774           
1 56029U 23042AV  26076.91670139  .00050551  00000+0  26115-2 0  9992
2 56029  43.0016 357.9992 0002502 254.2849  66.7961 15.15548346  5681
STARLINK-5781           
1 56030U 23042AW  26076.91670139  .00008778  00000+0  50609-3 0  9994
2 56030  43.0007 357.9806 0002237 232.4881  91.7585 15.12596352  5773
STARLINK-5785           
1 56031U 23042AX  26076.91670139  .00008675  00000+0  46832-3 0  9994
2 56031  43.0007 357.7559 0001557 299.3093 125.2369 15.14963023  5776
STARLINK-5786           
1 56032U 23042AY  26076.91670139  .00009455  00000+0  53826-3 0  9993
2 56032  43.0004 357.6943 0001511 249.5372 198.8533 15.12982865  5724
STARLINK-5782           
1 56034U 23042BA  26076.91670139  .00008786  00000+0  51943-3 0  9999
2 56034  43.0004 357.7744 0001653 259.3541 154.9304 15.11686892  5774
STARLINK-5792           
1 56035U 23042BB  26076.91670139  .00048104  00000+0  26169-2 0  9999
2 56035  43.0009 357.9055 0002473 265.4414  94.2748 15.13737321  5825
STARLINK-5790           
1 56036U 23042BC  26076.91670139  .00003320  00000+0  19808-3 0  9994
2 56036  43.0014 357.8789 0002170 260.4075 105.5500 15.12845260  5774
STARLINK-5758           
1 56037U 23042BD  26076.91670139  .00014359  00000+0  62998-3 0  9997
2 56037  42.9998 343.9588 0001645 267.3136 110.4558 15.21799376  5726
STARLINK-5793           
1 56038U 23042BE  26076.91670139  .00008912  00000+0  52595-3 0  9998
2 56038  43.0003 357.7428 0001636 263.3014 164.5251 15.11737534  5720
STARLINK-5795           
1 56039U 23042BF  26076.91670139  .00015546  00000+0  70948-3 0  9992
2 56039  43.0004 344.0278 0002050 258.8391  90.2894 15.20397460  5775
STARLINK-5798           
1 56040U 23042BG  26076.91670139  .00016729  00000+0  78154-3 0  9995
2 56040  43.0000 344.1865 0001368 256.4806  23.5722 15.19548701  5775
