[{"OBJECT_NAME":"STARLINK-5772","OBJECT_ID":"2023-042AQ","EPOCH":"2026-03-17T22:00:03.000096","MEAN_MOTION":15.14765129,"ECCENTRICITY":0.00022189,"INCLINATION":43.002,"RA_OF_ASC_NODE":357.9046,"ARG_OF_PERICENTER":258.6025,"MEAN_ANOMALY":102.0582,"EPHEMERIS_TYPE":0,"CLASSIFICATION_TYPE":"U","NORAD_CAT_ID":56024,"ELEMENT_SET_NO":999,"REV_AT_EPOCH":577,"BSTAR":0.00052491357,"MEAN_MOTION_DOT":9.697e-5,"MEAN_MOTION_DDOT":0},{"OBJECT_NAME":"STARLINK-5766","OBJECT_ID":"2023-042AR","EPOCH":"2026-03-17T22:00:03.000096","MEAN_MOTION":15.14222575,"ECCENTRICITY":4.435e-5,"INCLINATION":43.0004,"RA_OF_ASC_NODE":358.4119,"ARG_OF_PERICENTER":331.8101,"MEAN_ANOMALY":174.9189,"EPHEMERIS_TYPE":0,"CLASSIFICATION_TYPE":"U","NORAD_CAT_ID":56025,"ELEMENT_SET_NO":999,"REV_AT_EPOCH":577,"BSTAR":0.00050374229,"MEAN_MOTION_DOT":9.152e-5,"MEAN_MOTION_DDOT":0},{"OBJECT_NAME":"STARLINK-5770","OBJECT_ID":"2023-042AS","EPOCH":"2026-03-17T22:00:03.000096","MEAN_MOTION":15.16758593,"ECCENTRICITY":7.029e-5,"INCLINATION":43.0004,"RA_OF_ASC_NODE":357.6277,"ARG_OF_PERICENTER":321.516,"MEAN_ANOMALY":158.5859,"EPHEMERIS_TYPE":0,"CLASSIFICATION_TYPE":"U","NORAD_CAT_ID":56026,"ELEMENT_SET_NO":999,"REV_AT_EPOCH":572,"BSTAR":0.00054893558,"MEAN_MOTION_DOT":0.00010754,"MEAN_MOTION_DDOT":0},{"OBJECT_NAME":"STARLINK-5777","OBJECT_ID":"2023-042AT","EPOCH":"2026-03-17T22:00:03.000096","MEAN_MOTION":15.16359924,"ECCENTRICITY":0.00017359,"INCLINATION":42.9999,"RA_OF_ASC_NODE":357.7994,"ARG_OF_PERICENTER":263.1433,"MEAN_ANOMALY":143.9128,"EPHEMERIS_TYPE":0,"CLASSIFICATION_TYPE":"U","NORAD_CAT_ID":56027,"ELEMENT_SET_NO":999,"REV_AT_EPOCH":562,"BSTAR":0.00040534316,"MEAN_MOTION_DOT":7.785e-5,"MEAN_MOTION_DDOT":0},{"OBJECT_NAME":"STARLINK-5779","OBJECT_ID":"2023-042AU","EPOCH":"2026-03-17T22:00:03.000096","MEAN_MOTION":15.13384185,"ECCENTRICITY":0.00013964,"INCLINATION":42.9998,"RA_OF_ASC_NODE":357.8325,"ARG_OF_PERICENTER":234.6108,"MEAN_ANOMALY":152.9773,"EPHEMERIS_TYPE":0,"CLASSIFICATION_TYPE":"U","NORAD_CAT_ID":56028,"ELEMENT_SET_NO":999,"REV_AT_EPOCH":577,"BSTAR":0.00029957827,"MEAN_MOTION_DOT":5.219e-5,"MEAN_MOTION_DDOT":0},{"OBJECT_NAME":"STARLINK-5774","OBJECT_ID":"2023-042AV","EPOCH":"2026-03-17T22:00:03.000096","MEAN_MOTION":15.15548346,"ECCENTRICITY":0.00025025,"INCLINATION":43.0016,"RA_OF_ASC_NODE":357.9992,"ARG_OF_PERICENTER":254.2849,"MEAN_ANOMALY":66.7961,"EPHEMERIS_TYPE":0,"CLASSIFICATION_TYPE":"U","NORAD_CAT_ID":56029,"ELEMENT_SET_NO":999,"REV_AT_EPOCH":568,"BSTAR":0.0026115002,"MEAN_MOTION_DOT":0.00050551,"MEAN_MOTION_DDOT":0},{"OBJECT_NAME":"STARLINK-5781","OBJECT_ID":"2023-042AW","EPOCH":"2026-03-17T22:00:03.000096","MEAN_MOTION":15.12596352,"ECCENTRICITY":0.0002237,"INCLINATION":43.0007,"RA_OF_ASC_NODE":357.9806,"ARG_OF_PERICENTER":232.4881,"MEAN_ANOMALY":91.7585,"EPHEMERIS_TYPE":0,"CLASSIFICATION_TYPE":"U","NORAD_CAT_ID":56030,"ELEMENT_SET_NO":999,"REV_AT_EPOCH":577,"BSTAR":0.00050609137,"MEAN_MOTION_DOT":8.778e-5,"MEAN_MOTION_DDOT":0},{"OBJECT_NAME":"STARLINK-5785","OBJECT_ID":"2023-042AX","EPOCH":"2026-03-17T22:00:03.000096","MEAN_MOTION":15.14963023,"ECCENTRICITY":0.00015579,"INCLINATION":43.0007,"RA_OF_ASC_NODE":357.7559,"ARG_OF_PERICENTER":299.3093,"MEAN_ANOMALY":125.2369,"EPHEMERIS_TYPE":0,"CLASSIFICATION_TYPE":"U","NORAD_CAT_ID":56031,"ELEMENT_SET_NO":999,"REV_AT_EPOCH":577,"BSTAR":0.00046831698,"MEAN_MOTION_DOT":8.675e-5,"MEAN_MOTION_DDOT":0},{"OBJECT_NAME":"STARLINK-5786","OBJECT_ID":"2023-042AY","EPOCH":"2026-03-17T22:00:03.000096","MEAN_MOTION":15.12982865,"ECCENTRICITY":0.00015111,"INCLINATION":43.0004,"RA_OF_ASC_NODE":357.6943,"ARG_OF_PERICENTER":249.5372,"MEAN_ANOMALY":198.8533,"EPHEMERIS_TYPE":0,"CLASSIFICATION_TYPE":"U","NORAD_CAT_ID":56032,"ELEMENT_SET_NO":999,"REV_AT_EPOCH":572,"BSTAR":0.00053826453,"MEAN_MOTION_DOT":9.455e-5,"MEAN_MOTION_DDOT":0},{"OBJECT_NAME":"STARLINK-5782","OBJECT_ID":"2023-042BA","EPOCH":"2026-03-17T22:00:03.000096","MEAN_MOTION":15.11686892,"ECCENTRICITY":0.00016536,"INCLINATION":43.0004,"RA_OF_ASC_NODE":357.7744,"ARG_OF_PERICENTER":259.3541,"MEAN_ANOMALY":154.9304,"EPHEMERIS_TYPE":0,"CLASSIFICATION_TYPE":"U","NORAD_CAT_ID":56034,"ELEMENT_SET_NO":999,"REV_AT_EPOCH":577,"BSTAR":0.00051943032,"MEAN_MOTION_DOT":8.786e-5,"MEAN_MOTION_DDOT":0},{"OBJECT_NAME":"STARLINK-5792","OBJECT_ID":"2023-042BB","EPOCH":"2026-03-17T22:00:03.000096","MEAN_MOTION":15.13737321,"ECCENTRICITY":0.00024731,"INCLINATION":43.0009,"RA_OF_ASC_NODE":357.9055,"ARG_OF_PERICENTER":265.4414,"MEAN_ANOMALY":94.2748,"EPHEMERIS_TYPE":0,"CLASSIFICATION_TYPE":"U","NORAD_CAT_ID":56035,"ELEMENT_SET_NO":999,"REV_AT_EPOCH":582,"BSTAR":0.002616903,"MEAN_MOTION_DOT":0.00048104,"MEAN_MOTION_DDOT":0},{"OBJECT_NAME":"STARLINK-5790","OBJECT_ID":"2023-042BC","EPOCH":"2026-03-17T22:00:03.000096","MEAN_MOTION":15.1284526,"ECCENTRICITY":0.00021701,"INCLINATION":43.0014,"RA_OF_ASC_NODE":357.8789,"ARG_OF_PERICENTER":260.4075,"MEAN_ANOMALY":105.55,"EPHEMERIS_TYPE":0,"CLASSIFICATION_TYPE":"U","NORAD_CAT_ID":56036,"ELEMENT_SET_NO":999,"REV_AT_EPOCH":577,"BSTAR":0.00019807775,"MEAN_MOTION_DOT":3.32e-5,"MEAN_MOTION_DDOT":0},{"OBJECT_NAME":"STARLINK-5758","OBJECT_ID":"2023-042BD","EPOCH":"2026-03-17T22:00:03.000096","MEAN_MOTION":15.21799376,"ECCENTRICITY":0.00016456,"INCLINATION":42.9998,"RA_OF_ASC_NODE":343.9588,"ARG_OF_PERICENTER":267.3136,"MEAN_ANOMALY":110.4558,"EPHEMERIS_TYPE":0,"CLASSIFICATION_TYPE":"U","NORAD_CAT_ID":56037,"ELEMENT_SET_NO":999,"REV_AT_EPOCH":572,"BSTAR":0.00062997716,"MEAN_MOTION_DOT":0.00014359,"MEAN_MOTION_DDOT":0},{"OBJECT_NAME":"STARLINK-5793","OBJECT_ID":"2023-042BE","EPOCH":"2026-03-17T22:00:03.000096","MEAN_MOTION":15.11737534,"ECCENTRICITY":0.00016364,"INCLINATION":43.0003,"RA_OF_ASC_NODE":357.7428,"ARG_OF_PERICENTER":263.3014,"MEAN_ANOMALY":164.5251,"EPHEMERIS_TYPE":0,"CLASSIFICATION_TYPE":"U","NORAD_CAT_ID":56038,"ELEMENT_SET_NO":999,"REV_AT_EPOCH":572,"BSTAR":0.00052595262,"MEAN_MOTION_DOT":8.912e-5,"MEAN_MOTION_DDOT":0},{"OBJECT_NAME":"STARLINK-5795","OBJECT_ID":"2023-042BF","EPOCH":"2026-03-17T22:00:03.000096","MEAN_MOTION":15.2039746,"ECCENTRICITY":0.000205,"INCLINATION":43.0004,"RA_OF_ASC_NODE":344.0278,"ARG_OF_PERICENTER":258.8391,"MEAN_ANOMALY":90.2894,"EPHEMERIS_TYPE":0,"CLASSIFICATION_TYPE":"U","NORAD_CAT_ID":56039,"ELEMENT_SET_NO":999,"REV_AT_EPOCH":577,"BSTAR":0.00070948403,"MEAN_MOTION_DOT":0.00015546,"MEAN_MOTION_DDOT":0},{"OBJECT_NAME":"STARLINK-5798","OBJECT_ID":"2023-042BG","EPOCH":"2026-03-17T22:00:03.000096","MEAN_MOTION":15.19548701,"ECCENTRICITY":0.00013689,"INCLINATION":43,"RA_OF_ASC_NODE":344.1865,"ARG_OF_PERICENTER":256.4806,"MEAN_ANOMALY":23.5722,"EPHEMERIS_TYPE":0,"CLASSIFICATION_TYPE":"U","NORAD_CAT_ID":56040,"ELEMENT_SET_NO":999,"REV_AT_EPOCH":577,"BSTAR":0.00078153847,"MEAN_MOTION_DOT":0.00016729,"MEAN_MOTION_DDOT":0}]
